{"epoch":1784799577,"count":18318,"objects":[{"id":"59120","name":"TIGER-8","type":"PAYLOAD","l1":"1 59120U 24043Y   26203.84072368  .00010086  00000-0  21364-3 0  9995","l2":"2 59120  97.5579 353.8973 0008786  80.0428 280.1812 15.45269652133295"},{"id":"59141","name":"TIGER-7","type":"PAYLOAD","l1":"1 59141U 24043AV  26203.33762791  .00012054  00000-0  22077-3 0  9997","l2":"2 59141  97.5512 355.9219 0006537  56.5940 303.5935 15.49462143133414"}]}