{"fetched_at":"2026-07-23T07:06:07.411Z","source":"https://celestrak.org/NORAD/elements/gp.php?NAME=TIGER&FORMAT=JSON","constellation":"oq-technology","records":[{"OBJECT_NAME":"TIGER-8","OBJECT_ID":"2024-043Y","EPOCH":"2026-07-22T20:10:38.525952","CLASSIFICATION_TYPE":"U","MEAN_MOTION":15.45269652,"ECCENTRICITY":0.00087863,"INCLINATION":97.5579,"RA_OF_ASC_NODE":353.8973,"ARG_OF_PERICENTER":80.0428,"MEAN_ANOMALY":280.1812,"EPHEMERIS_TYPE":0,"NORAD_CAT_ID":59120,"ELEMENT_SET_NO":999,"REV_AT_EPOCH":13329,"BSTAR":0.00021364224,"MEAN_MOTION_DOT":0.00010086,"MEAN_MOTION_DDOT":0},{"OBJECT_NAME":"TIGER-7","OBJECT_ID":"2024-043AV","EPOCH":"2026-07-22T08:06:11.051424","CLASSIFICATION_TYPE":"U","MEAN_MOTION":15.49462143,"ECCENTRICITY":0.00065366,"INCLINATION":97.5512,"RA_OF_ASC_NODE":355.9219,"ARG_OF_PERICENTER":56.594,"MEAN_ANOMALY":303.5935,"EPHEMERIS_TYPE":0,"NORAD_CAT_ID":59141,"ELEMENT_SET_NO":999,"REV_AT_EPOCH":13341,"BSTAR":0.00022076723,"MEAN_MOTION_DOT":0.00012054,"MEAN_MOTION_DDOT":0}]}
